{"fetched_at":"2026-07-13T05:28:12.237Z","source":"https://celestrak.org/NORAD/elements/gp.php?NAME=HULIANWANG&FORMAT=JSON","constellation":"guowang","records":[{"OBJECT_NAME":"HULIANWANG DIGUI-76","OBJECT_ID":"2025-187D","EPOCH":"2026-07-12T19:10:15.322080","CLASSIFICATION_TYPE":"U","MEAN_MOTION":13.29323662,"ECCENTRICITY":0.0000118,"INCLINATION":50.0008,"RA_OF_ASC_NODE":114.14,"ARG_OF_PERICENTER":326.6141,"MEAN_ANOMALY":33.4724,"EPHEMERIS_TYPE":0,"NORAD_CAT_ID":65308,"ELEMENT_SET_NO":999,"REV_AT_EPOCH":4310,"BSTAR":-0.0000088975,"MEAN_MOTION_DOT":-0.00000128,"MEAN_MOTION_DDOT":0},{"OBJECT_NAME":"HULIANWANG DIGUI-77","OBJECT_ID":"2025-187E","EPOCH":"2026-07-12T18:58:04.573344","CLASSIFICATION_TYPE":"U","MEAN_MOTION":13.29323549,"ECCENTRICITY":0.0000145,"INCLINATION":50.0042,"RA_OF_ASC_NODE":114.1832,"ARG_OF_PERICENTER":212.0758,"MEAN_ANOMALY":148.0105,"EPHEMERIS_TYPE":0,"NORAD_CAT_ID":65309,"ELEMENT_SET_NO":999,"REV_AT_EPOCH":4310,"BSTAR":-0.000015125,"MEAN_MOTION_DOT":-0.00000131,"MEAN_MOTION_DDOT":0},{"OBJECT_NAME":"HULIANWANG DIGUI-78","OBJECT_ID":"2025-187F","EPOCH":"2026-07-12T19:46:20.982144","CLASSIFICATION_TYPE":"U","MEAN_MOTION":13.29322652,"ECCENTRICITY":0.0000154,"INCLINATION":50.0108,"RA_OF_ASC_NODE":113.8654,"ARG_OF_PERICENTER":303.5061,"MEAN_ANOMALY":56.5797,"EPHEMERIS_TYPE":0,"NORAD_CAT_ID":65310,"ELEMENT_SET_NO":999,"REV_AT_EPOCH":4311,"BSTAR":0.000020571,"MEAN_MOTION_DOT":-0.00000115,"MEAN_MOTION_DDOT":0},{"OBJECT_NAME":"HULIANWANG DIGUI-79","OBJECT_ID":"2025-187G","EPOCH":"2026-07-12T19:22:10.187040","CLASSIFICATION_TYPE":"U","MEAN_MOTION":13.29319481,"ECCENTRICITY":0.0000212,"INCLINATION":50.0037,"RA_OF_ASC_NODE":114.2575,"ARG_OF_PERICENTER":301.8372,"MEAN_ANOMALY":58.2479,"EPHEMERIS_TYPE":0,"NORAD_CAT_ID":65311,"ELEMENT_SET_NO":999,"REV_AT_EPOCH":4310,"BSTAR":0.0000066662,"MEAN_MOTION_DOT":-0.00000121,"MEAN_MOTION_DDOT":0},{"OBJECT_NAME":"HULIANWANG DIGUI-80","OBJECT_ID":"2025-187H","EPOCH":"2026-07-12T20:34:19.769664","CLASSIFICATION_TYPE":"U","MEAN_MOTION":13.29322676,"ECCENTRICITY":0.0000136,"INCLINATION":50.0028,"RA_OF_ASC_NODE":113.8344,"ARG_OF_PERICENTER":215.9683,"MEAN_ANOMALY":144.118,"EPHEMERIS_TYPE":0,"NORAD_CAT_ID":65312,"ELEMENT_SET_NO":999,"REV_AT_EPOCH":4311,"BSTAR":-0.0000037331,"MEAN_MOTION_DOT":-0.00000126,"MEAN_MOTION_DDOT":0},{"OBJECT_NAME":"HULIANWANG DIGUI-81","OBJECT_ID":"2025-187J","EPOCH":"2026-07-12T20:10:22.363104","CLASSIFICATION_TYPE":"U","MEAN_MOTION":13.29319494,"ECCENTRICITY":0.0000168,"INCLINATION":50.0068,"RA_OF_ASC_NODE":113.8501,"ARG_OF_PERICENTER":293.4637,"MEAN_ANOMALY":66.6218,"EPHEMERIS_TYPE":0,"NORAD_CAT_ID":65313,"ELEMENT_SET_NO":999,"REV_AT_EPOCH":4312,"BSTAR":0.00001067,"MEAN_MOTION_DOT":-0.00000119,"MEAN_MOTION_DDOT":0},{"OBJECT_NAME":"HULIANWANG DIGUI-82","OBJECT_ID":"2025-220A","EPOCH":"2026-07-12T13:09:52.695648","CLASSIFICATION_TYPE":"U","MEAN_MOTION":13.2440951,"ECCENTRICITY":0.00020679,"INCLINATION":86.4952,"RA_OF_ASC_NODE":35.2931,"ARG_OF_PERICENTER":101.0069,"MEAN_ANOMALY":259.1298,"EPHEMERIS_TYPE":0,"NORAD_CAT_ID":65817,"ELEMENT_SET_NO":999,"REV_AT_EPOCH":3827,"BSTAR":0.000020337387,"MEAN_MOTION_DOT":2.3e-7,"MEAN_MOTION_DDOT":0},{"OBJECT_NAME":"HULIANWANG DIGUI-83","OBJECT_ID":"2025-220B","EPOCH":"2026-07-12T12:59:05.703072","CLASSIFICATION_TYPE":"U","MEAN_MOTION":13.24409859,"ECCENTRICITY":0.00020995,"INCLINATION":86.4975,"RA_OF_ASC_NODE":35.3542,"ARG_OF_PERICENTER":99.8886,"MEAN_ANOMALY":260.2485,"EPHEMERIS_TYPE":0,"NORAD_CAT_ID":65818,"ELEMENT_SET_NO":999,"REV_AT_EPOCH":3827,"BSTAR":0.00004128903,"MEAN_MOTION_DOT":3.2e-7,"MEAN_MOTION_DDOT":0},{"OBJECT_NAME":"HULIANWANG DIGUI-84","OBJECT_ID":"2025-220C","EPOCH":"2026-07-12T12:48:09.731808","CLASSIFICATION_TYPE":"U","MEAN_MOTION":13.24409646,"ECCENTRICITY":0.00020483,"INCLINATION":86.4911,"RA_OF_ASC_NODE":35.1697,"ARG_OF_PERICENTER":100.3877,"MEAN_ANOMALY":259.7488,"EPHEMERIS_TYPE":0,"NORAD_CAT_ID":65819,"ELEMENT_SET_NO":999,"REV_AT_EPOCH":3827,"BSTAR":0.000052909841,"MEAN_MOTION_DOT":3.7e-7,"MEAN_MOTION_DDOT":0},{"OBJECT_NAME":"HULIANWANG DIGUI-85","OBJECT_ID":"2025-220D","EPOCH":"2026-07-12T19:52:26.067072","CLASSIFICATION_TYPE":"U","MEAN_MOTION":13.24408589,"ECCENTRICITY":0.000203,"INCLINATION":86.4972,"RA_OF_ASC_NODE":35.2401,"ARG_OF_PERICENTER":102.2447,"MEAN_ANOMALY":257.8914,"EPHEMERIS_TYPE":0,"NORAD_CAT_ID":65820,"ELEMENT_SET_NO":999,"REV_AT_EPOCH":3831,"BSTAR":0.00010894,"MEAN_MOTION_DOT":6.1e-7,"MEAN_MOTION_DDOT":0},{"OBJECT_NAME":"HULIANWANG DIGUI-86","OBJECT_ID":"2025-220E","EPOCH":"2026-07-12T14:15:24.064128","CLASSIFICATION_TYPE":"U","MEAN_MOTION":13.24411378,"ECCENTRICITY":0.0002068,"INCLINATION":86.4951,"RA_OF_ASC_NODE":35.2515,"ARG_OF_PERICENTER":84.6916,"MEAN_ANOMALY":275.4454,"EPHEMERIS_TYPE":0,"NORAD_CAT_ID":65821,"ELEMENT_SET_NO":999,"REV_AT_EPOCH":3828,"BSTAR":0.0001029,"MEAN_MOTION_DOT":5.9e-7,"MEAN_MOTION_DDOT":0},{"OBJECT_NAME":"HULIANWANG DIGUI-87","OBJECT_ID":"2025-231A","EPOCH":"2026-07-12T17:25:37.315776","CLASSIFICATION_TYPE":"U","MEAN_MOTION":13.29328064,"ECCENTRICITY":0.0000519,"INCLINATION":50.0001,"RA_OF_ASC_NODE":84.2367,"ARG_OF_PERICENTER":340.8622,"MEAN_ANOMALY":19.223,"EPHEMERIS_TYPE":0,"NORAD_CAT_ID":65995,"ELEMENT_SET_NO":999,"REV_AT_EPOCH":3628,"BSTAR":0.000030073,"MEAN_MOTION_DOT":-0.0000011,"MEAN_MOTION_DDOT":0},{"OBJECT_NAME":"HULIANWANG DIGUI-88","OBJECT_ID":"2025-231B","EPOCH":"2026-07-12T15:49:24.765888","CLASSIFICATION_TYPE":"U","MEAN_MOTION":13.29323672,"ECCENTRICITY":0.0000561,"INCLINATION":49.9987,"RA_OF_ASC_NODE":84.5233,"ARG_OF_PERICENTER":324.8155,"MEAN_ANOMALY":35.268,"EPHEMERIS_TYPE":0,"NORAD_CAT_ID":65996,"ELEMENT_SET_NO":999,"REV_AT_EPOCH":3627,"BSTAR":0.000041476,"MEAN_MOTION_DOT":-0.00000105,"MEAN_MOTION_DDOT":0},{"OBJECT_NAME":"HULIANWANG DIGUI-89","OBJECT_ID":"2025-231C","EPOCH":"2026-07-12T17:13:33.956832","CLASSIFICATION_TYPE":"U","MEAN_MOTION":13.29327894,"ECCENTRICITY":0.0000622,"INCLINATION":49.9964,"RA_OF_ASC_NODE":84.1196,"ARG_OF_PERICENTER":330.8626,"MEAN_ANOMALY":29.2211,"EPHEMERIS_TYPE":0,"NORAD_CAT_ID":65997,"ELEMENT_SET_NO":999,"REV_AT_EPOCH":3628,"BSTAR":0.000025067,"MEAN_MOTION_DOT":-0.00000112,"MEAN_MOTION_DDOT":0},{"OBJECT_NAME":"HULIANWANG DIGUI-90","OBJECT_ID":"2025-231D","EPOCH":"2026-07-12T17:01:37.895232","CLASSIFICATION_TYPE":"U","MEAN_MOTION":13.29326108,"ECCENTRICITY":0.0000628,"INCLINATION":49.9994,"RA_OF_ASC_NODE":84.1382,"ARG_OF_PERICENTER":322.9557,"MEAN_ANOMALY":37.1272,"EPHEMERIS_TYPE":0,"NORAD_CAT_ID":65998,"ELEMENT_SET_NO":999,"REV_AT_EPOCH":3628,"BSTAR":-0.000015104,"MEAN_MOTION_DOT":-0.00000131,"MEAN_MOTION_DDOT":0},{"OBJECT_NAME":"HULIANWANG DIGUI-91","OBJECT_ID":"2025-231E","EPOCH":"2026-07-12T02:23:31.882848","CLASSIFICATION_TYPE":"U","MEAN_MOTION":13.29326873,"ECCENTRICITY":0.0000569,"INCLINATION":50.0014,"RA_OF_ASC_NODE":86.2939,"ARG_OF_PERICENTER":324.7979,"MEAN_ANOMALY":35.2855,"EPHEMERIS_TYPE":0,"NORAD_CAT_ID":65999,"ELEMENT_SET_NO":999,"REV_AT_EPOCH":3620,"BSTAR":0.0000019596,"MEAN_MOTION_DOT":-0.00000123,"MEAN_MOTION_DDOT":0}]}
