HULIANWANG DIGUI-76     
1 65308U 25187D   26193.79878845 -.00000128  00000+0 -88975-5 0  9996
2 65308  50.0008 114.1400 0000118 326.6141  33.4724 13.29323662 43109
HULIANWANG DIGUI-77     
1 65309U 25187E   26193.79033071 -.00000131  00000+0 -15125-4 0  9991
2 65309  50.0042 114.1832 0000145 212.0758 148.0105 13.29323549 43109
HULIANWANG DIGUI-78     
1 65310U 25187F   26193.82385396 -.00000115  00000+0  20571-4 0  9999
2 65310  50.0108 113.8654 0000154 303.5061  56.5797 13.29322652 43110
HULIANWANG DIGUI-79     
1 65311U 25187G   26193.80706235 -.00000121  00000+0  66662-5 0  9996
2 65311  50.0037 114.2575 0000212 301.8372  58.2479 13.29319481 43101
HULIANWANG DIGUI-80     
1 65312U 25187H   26193.85717326 -.00000126  00000+0 -37331-5 0  9992
2 65312  50.0028 113.8344 0000136 215.9683 144.1180 13.29322676 43111
HULIANWANG DIGUI-81     
1 65313U 25187J   26193.84053661 -.00000119  00000+0  10670-4 0  9994
2 65313  50.0068 113.8501 0000168 293.4637  66.6218 13.29319494 43121
HULIANWANG DIGUI-82     
1 65817U 25220A   26193.54852657  .00000023  00000+0  20337-4 0  9994
2 65817  86.4952  35.2931 0002067 101.0069 259.1298 13.24409510 38273
HULIANWANG DIGUI-83     
1 65818U 25220B   26193.54103823  .00000032  00000+0  41289-4 0  9998
2 65818  86.4975  35.3542 0002099  99.8886 260.2485 13.24409859 38271
HULIANWANG DIGUI-84     
1 65819U 25220C   26193.53344597  .00000037  00000+0  52910-4 0  9991
2 65819  86.4911  35.1697 0002048 100.3877 259.7488 13.24409646 38273
HULIANWANG DIGUI-85     
1 65820U 25220D   26193.82807948  .00000061  00000+0  10894-3 0  9990
2 65820  86.4972  35.2401 0002030 102.2447 257.8914 13.24408589 38314
HULIANWANG DIGUI-86     
1 65821U 25220E   26193.59402852  .00000059  00000+0  10290-3 0  9997
2 65821  86.4951  35.2515 0002068  84.6916 275.4454 13.24411378 38284
HULIANWANG DIGUI-87     
1 65995U 25231A   26193.72612634 -.00000110  00000+0  30073-4 0  9998
2 65995  50.0001  84.2367 0000519 340.8622  19.2230 13.29328064 36286
HULIANWANG DIGUI-88     
1 65996U 25231B   26193.65931442 -.00000105  00000+0  41476-4 0  9995
2 65996  49.9987  84.5233 0000561 324.8155  35.2680 13.29323672 36278
HULIANWANG DIGUI-89     
1 65997U 25231C   26193.71775413 -.00000112  00000+0  25067-4 0  9993
2 65997  49.9964  84.1196 0000622 330.8626  29.2211 13.29327894 36280
HULIANWANG DIGUI-90     
1 65998U 25231D   26193.70946638 -.00000131  00000+0 -15104-4 0  9995
2 65998  49.9994  84.1382 0000628 322.9557  37.1272 13.29326108 36284
HULIANWANG DIGUI-91     
1 65999U 25231E   26193.09967457 -.00000123  00000+0  19596-5 0  9990
2 65999  50.0014  86.2939 0000569 324.7979  35.2855 13.29326873 36201
